#dP2025  1 24  0  0  0.00000000      97 __u+U IGS20 FIT  IAC
## 2350 432000.00000000   900.00000000 60699 0.0000000000000
+  118   C06C07C08C09C10C11C12C13C14C16C19C20C21C22C23C24C25
+        C26C27C28C29C30C32C33C34C35C36C37C38C39C40C41C42C43
+        C44C45E02E03E04E05E06E07E08E09E10E11E13E14E15E18E19
+        E21E24E25E26E27E29E30E31E33E34E36G01G02G03G04G05G06
+        G07G08G09G10G11G12G13G14G15G16G17G18G19G20G21G22G23
+        G24G25G26G27G28G29G30G31G32J02J03J04R01R02R03R04R05
+        R06R07R08R09R11R12R14R15R16R17R18R19R20R21R22R24  0
++         7  7  7  7  7  7  7  7  6  7  5  5  5  6  6  5  6
++         5  6  5  5  5  5  5  6  5  6  5  6  6  6  6  5  6
++         6  6  4  4  4  4  4  4  4  4  4  4  4  4  4  4  4
++         4  4  4  4  4  4  4  4  4  4  4  4  3  3  4  3  3
++         3  3  3  3  3  3  3  3  4  3  3  3  3  4  3  3  3
++         3  3  3  3  3  3  3  3  3 10 11 11  7  6  6  6  6
++         7  7  6  7  6  6  6  6  7  6  7  8  7  6  6  6  0
%c M  cc GPS ccc cccc cccc cccc cccc ccccc ccccc ccccc ccccc
%c cc cc ccc ccc cccc cccc cccc cccc ccccc ccccc ccccc ccccc
%f  1.2500000  1.025000000  0.00000000000  0.000000000000000
%f  0.0000000  0.000000000  0.00000000000  0.000000000000000
%i    0    0    0    0      0      0      0      0         0
%i    0    0    0    0      0      0      0      0         0
/* INFORMATION & ANALYSIS CENTER (IAC)            FINAL DATA
/* S/V CLOCKS ARE ALIGNED TO GNSS TIME                      
/* G:C1WC2W R:C1PC2P E:C1XC5X C:C2IC6I J:C1CC2S             
/* PCV:IGS20_2350 OL/AL:FES2004  NONE     YN ORB:CoN CLK:CoN
*  2025 01 24 13  0  0.00000000
PC06  -4584.366137  24972.636537 -33529.577194    705.061824
PC07 -17590.596795  34511.085159  16469.008445    201.823944
PC08  -3375.221977  40548.639458  11521.773995    130.326757
PC09   4130.992521  27944.477974 -30586.476494   -880.795986
PC10 -10031.666884  34497.489586  21972.564066   -410.967442
PC11  -5155.739344 -15420.692031 -22607.812358    352.072106
PC12  16146.963170 -12254.070249 -19133.127249   -209.954453
PC13   -586.303206  41541.146909   8223.829213     62.049293
PC14   1940.607083 -23313.690287  15268.918056   -695.476444
PC16  -5632.977538  23827.613530 -33942.523160    -85.589629
PC19   5763.306234  17545.805831 -20887.111704   -962.576267
PC20  -8178.350707  25150.234132  -8847.102493   -869.563198
PC21  18685.831726 -18196.070112  -9945.991615   -904.210595
PC22  17405.201259   -639.154800 -21811.697520    239.667106
PC23 -19781.322040 -11143.567615 -16227.389485   -959.496870
PC24    351.284172 -22871.342908  15942.663228    680.916336
PC25 -14473.720521 -23843.802946   -326.800870    626.050861
PC26  13760.505675  -8786.255206  22606.116949   -410.234084
PC27 -23630.406939   8295.005830  12304.492050    427.839271
PC28 -27731.455394  -2099.679610  -2333.285964    335.119580
PC29  14882.855850  13417.640349  19416.504667    393.337041
PC30  -7151.282238  15715.734986  21920.057571     87.924962
PC32 -18573.649623  18217.585015  10089.649894   -893.475813
PC33  -5824.313600 -17626.146676  20846.516352   -948.908162
PC34   5130.580724 -15991.293598 -22295.468953    614.309267
PC35  27656.588013   1627.121023   3155.470075    144.792509
PC36  14117.827638  24073.779248    617.032680    256.269086
PC37 -14208.475308   8063.757504 -22625.600810   -907.064261
PC38  -9073.614846  35825.431194  20484.649450    204.707875
PC39 -12802.616135  20530.769604 -34495.828362    -10.810948
PC40 -24961.853537  29433.618107  16596.489098   -116.662476
PC41 -17023.139316   -462.862721  22159.560560   -882.486559
PC42   9491.535327 -25301.871612   7077.475587   -576.479363
PC43 -14176.704026 -13781.850039 -19714.070541     99.329040
PC44  23321.327266  -9280.147242 -12176.794234    720.380336
PC45  19646.315174  11890.207748  15860.274290   -217.468446
PE02  -7029.838302  28269.469417  -5328.873689    192.438758
PE03 -13420.992384  19457.739211 -17815.482148   -168.629861
PE04  -8278.772380 -14775.812141  24281.987945   -140.423031
PE05 -26768.564262  12593.177700  -1004.909450   4821.751554
PE06 -17937.426876  -8891.345000  21793.096990    -74.210124
PE07  24390.230916   1876.303205 -16667.967551   -165.312327
PE08   7483.686572  14991.086318 -24402.570959   -405.731666
PE09 -24304.836686  -1866.033023  16784.079381   -750.048592
PE10 -22834.712483 -18687.753382  -2355.982561   -685.353915
PE11 -25617.402669 -12459.722844   8074.830198   -522.242494
PE13  25559.206291  12860.217502  -7547.578441    -29.538987
PE14 -12704.587465  16587.046999  10994.738706    630.598887
PE15  16505.278578  21579.214897  11748.635312   -152.970300
PE18  18947.257159 -22062.656846 -14072.043512   1034.330848
PE19  15166.825792 -19127.253447  16747.887012   1280.816490
PE21  15866.329936 -14495.348053  20343.371795   -642.122771
PE24 -15700.762516  -8238.691873 -23721.793586  -1230.261863
PE25 -15988.915757  14024.109875 -20595.816248     13.583675
PE26  19287.692170  -3700.829059 -22131.819436   -144.847558
PE27  15643.034885   8260.195398  23727.510523   -564.625713
PE29  26672.096131 -12748.556029   1348.328466    -64.768975
PE30   6254.110965  25758.759606  13173.052285  -1169.765242
PE31  -6203.795412 -25816.316122 -13077.765634    -51.822324
PE33   2481.512775 -17259.873363 -23908.095080     16.444209
PE34  -2057.860590  17478.171440  23804.484249   -159.540770
PE36 -19531.123984   3161.603532  22030.515242   -343.541398
PG01 -21392.654068 -15746.308773   -413.446442     73.173731
PG02 -22638.360815 -13778.979750  -3362.925460   -260.095589
PG03 -11987.891834 -14304.577112  18778.717609    651.936506
PG04 -19022.657252  -4389.424281  18099.323535    516.834375
PG05   6129.988526  24570.856343  -8072.604549   -199.954136
PG06  -8030.631026  12223.788356  22243.563077   -140.708375
PG07 -23471.425025  -4637.937983 -11456.730511    -13.375894
PG08  -9834.974832 -12147.958915 -21633.428961    467.257900
PG09 -23513.867743   4390.261194  11528.853271    541.099430
PG10  10301.933636 -19082.062183 -14865.853495   -290.164575
PG11   4120.819426  18389.844673  18778.093830   -750.647430
PG12  10412.092826  17237.552509  17050.689739   -566.297208
PG13   -411.754151  15803.931583 -21538.650765    694.455049
PG14 -12963.126575  15596.927301 -16977.372016    585.946725
PG15  11610.678696  11105.263953 -21683.156676    255.388350
PG16    263.941356 -26108.077286  -3635.258973    -69.995378
PG17 -22743.610010  13560.128351   3619.421952    459.329663
PG18  22343.491628   2658.012106 -14259.177856   -656.590277
PG19 -16515.374337  16280.603935  12396.741132    589.977785
PG20    504.415440  26131.541718   5184.070864    366.829483
PG21 -18923.842413 -16634.028031  -9637.595103    101.566808
PG22  -9927.604336  22251.452641 -10554.856535    -93.889505
PG23  14480.581280  -4476.449869 -21738.228593    410.132488
PG24  21077.684014  15348.676853  -6534.373875   -460.420666
PG25  15166.539327   3687.639275  21152.722314    496.230645
PG26   4381.709301 -24661.556761   8038.347950    -61.396613
PG27   2493.317257 -17508.238882 -19993.255397    -32.602038
PG28   9792.152523 -11832.590926  21657.982824   -543.303568
PG29  23915.964052  -2255.447148  11420.039484   -544.225639
PG30 -17116.337114   6269.635747 -19250.446121   -231.999563
PG31   1099.579907 -16493.392450  20463.078004   -217.149200
PG32  19118.765665 -16760.960213   7542.819145   -535.554272
PJ02 -24952.452010  30581.240578 -10101.550955     -0.772413
PJ03 -27002.430742  22599.526095  28313.692713     -0.295413
PJ04 -31575.292604  27949.362892   5560.312380     21.167358
PR01   6019.364811   9650.678086 -22825.766871    112.338813
PR02  16334.950020  -5254.917023 -18794.572060    -38.170136
PR03  17804.487023 -17840.099577  -3652.710562    115.512269
PR04   9763.204970 -19794.019658  12805.627118    273.978367
PR05  -3625.072817 -11453.113854  22512.937090    144.287277
PR06 -10628.309362  20286.419809 -11188.866885   -131.482499
PR07 -17839.361630  17944.539385   3492.575785     99.468338
PR08  -9426.832967  19889.671332 -12862.214021     -6.336744
PR09 -13604.311201  -7236.621782 -20339.007953    233.937850
PR11   1526.862116  22135.683850 -12563.143594     -3.254542
PR12  11154.998606  21898.481305   6876.004183     49.981752
PR14   7516.119524 -10634.871211  21940.838383     27.641154
PR15  -2412.268908 -22920.774395  10949.437688     71.870261
PR16 -11113.448008 -21974.159304  -6722.259283     32.712286
PR17  17673.618119  -4775.716886 -17767.916652    160.281333
PR18   1489.743905 -10452.100449 -23201.713283    183.534514
PR19 -13447.310710 -11753.720446 -18208.118173   -306.670475
PR20 -24865.689055  -5666.876564   1229.527440   -124.959294
PR21 -18648.336009   3947.227132  16942.292177   -170.873741
PR22   -467.122555  11111.658149  22984.232214    -57.479244
PR24  25114.891530   4176.405625  -1650.233352    -89.515808
EOF
